ONEWEB-0620             
1 55161U 23004X   25013.02317218 -.00005096  00000+0 -14436-1 0  9992
2 55161  87.8900 124.7695 0002808 100.5451 259.5993 13.11357349 97656
ONEWEB-0621             
1 55162U 23004Y   25012.82135530  .00000202  00000+0  53473-3 0  9993
2 55162  87.8907 124.7719 0001503  97.4178 262.7121 13.11416492 97601
ONEWEB-0622             
1 55163U 23004Z   25012.82646378  .00000441  00000+0  12085-2 0  9999
2 55163  87.8909 124.7908 0002288  89.3769 270.7621 13.11416232 97607
ONEWEB-0623             
1 55164U 23004AA  25012.77945674  .00000060  00000+0  12093-3 0  9992
2 55164  87.9101 109.5758 0002060  81.9798 278.1567 13.17647719 99059
ONEWEB-0624             
1 55165U 23004AB  25012.72366218 -.00000157  00000+0 -47250-3 0  9991
2 55165  87.8879  94.2935 0001816  98.4734 261.6601 13.12443340 99784
ONEWEB-0625             
1 55166U 23004AC  25012.76931768  .00000005  00000+0 -20534-4 0  9992
2 55166  87.9102 109.5762 0001556 108.6900 251.4401 13.17652190 99047
ONEWEB-0626             
1 55167U 23004AD  25012.75920192 -.00000030  00000+0 -11001-3 0  9998
2 55167  87.9102 109.5772 0002250 118.2288 241.9071 13.17650750 99044
ONEWEB-0627             
1 55168U 23004AE  25012.74739179  .00000006  00000+0 -18396-4 0  9998
2 55168  87.9102 109.5814 0002084  89.7049 270.4321 13.17647082 99043
